{"type": "FeatureCollection", "features": [ {"type": "Feature", "properties": {"norad_id": 28659, "name": "DIRECTV 8", "group": "intelsat", "lat": 0.0014676992465726963, "lon": -176.08434212634944, "alt_km": 35783.70101777225, "timestamp": "2025-12-10T14:53:36.789863+00:00", "meta": {"OBJECT_NAME": "DIRECTV 8", "OBJECT_ID": "2005-019A", "EPOCH": "2025-12-10T07:31:28.466688", "MEAN_MOTION": 1.00272201, "ECCENTRICITY": 0.00031491, "INCLINATION": 0.0136, "RA_OF_ASC_NODE": 25.1148, "ARG_OF_PERICENTER": 239.1282, "MEAN_ANOMALY": 168.8738, "EPHEMERIS_TYPE": 0, "CLASSIFICATION_TYPE": "U", "NORAD_CAT_ID": 28659, "ELEMENT_SET_NO": 999, "REV_AT_EPOCH": 7517, "BSTAR": 0, "MEAN_MOTION_DOT": 5e-08, "MEAN_MOTION_DDOT": 0}, "tle": {"line1": "1 28659U 05019A   25344.31352392  .00000005  00000+0  00000+0 0  9994", "line2": "2 28659   0.0136  25.1148 0003149 239.1282 168.8738  1.00272201 75173"}}, "geometry": {"type": "Point", "coordinates": [-176.08434212634944, 0.0014676992465726963]}}, {"type": "Feature", "properties": {"norad_id": 28702, "name": "GALAXY 28 (G-28)", "group": "intelsat", "lat": 2.0434896004010077, "lon": -145.6770832149376, "alt_km": 35778.399149077886, "timestamp": "2025-12-10T14:53:36.789893+00:00", "meta": {"OBJECT_NAME": "GALAXY 28 (G-28)", "OBJECT_ID": "2005-022A", "EPOCH": "2025-12-10T04:23:38.620896", "MEAN_MOTION": 1.00270979, "ECCENTRICITY": 0.00026968, "INCLINATION": 2.8121, "RA_OF_ASC_NODE": 81.3115, "ARG_OF_PERICENTER": 180.7725, "MEAN_ANOMALY": 154.3044, "EPHEMERIS_TYPE": 0, "CLASSIFICATION_TYPE": "U", "NORAD_CAT_ID": 28702, "ELEMENT_SET_NO": 999, "REV_AT_EPOCH": 5007, "BSTAR": 0, "MEAN_MOTION_DOT": -1.84e-06, "MEAN_MOTION_DDOT": 0}, "tle": {"line1": "1 28702U 05022A   25344.18308589 -.00000184  00000+0  00000+0 0  9990", "line2": "2 28702   2.8121  81.3115 0002696 180.7725 154.3044  1.00270979 50075"}}, "geometry": {"type": "Point", "coordinates": [-145.6770832149376, 2.0434896004010077]}}, {"type": "Feature", "properties": {"norad_id": 29236, "name": "GALAXY 16 (G-16)", "group": "intelsat", "lat": 0.006635265726643793, "lon": -156.03998177619906, "alt_km": 35778.480939599074, "timestamp": "2025-12-10T14:53:36.789906+00:00", "meta": {"OBJECT_NAME": "GALAXY 16 (G-16)", "OBJECT_ID": "2006-023A", "EPOCH": "2025-12-10T07:31:25.074624", "MEAN_MOTION": 1.00272204, "ECCENTRICITY": 0.0002775, "INCLINATION": 0.0367, "RA_OF_ASC_NODE": 150.592, "ARG_OF_PERICENTER": 103.7073, "MEAN_ANOMALY": 198.8366, "EPHEMERIS_TYPE": 0, "CLASSIFICATION_TYPE": "U", "NORAD_CAT_ID": 29236, "ELEMENT_SET_NO": 999, "REV_AT_EPOCH": 7108, "BSTAR": 0, "MEAN_MOTION_DOT": -1.23e-06, "MEAN_MOTION_DDOT": 0}, "tle": {"line1": "1 29236U 06023A   25344.31348466 -.00000123  00000+0  00000+0 0  9991", "line2": "2 29236   0.0367 150.5920 0002775 103.7073 198.8366  1.00272204 71089"}}, "geometry": {"type": "Point", "coordinates": [-156.03998177619906, 0.006635265726643793]}}, {"type": "Feature", "properties": {"norad_id": 29494, "name": "DIRECTV 9S", "group": "intelsat", "lat": 1.688507382601839, "lon": -158.2397032612189, "alt_km": 35779.68481922177, "timestamp": "2025-12-10T14:53:36.789917+00:00", "meta": {"OBJECT_NAME": "DIRECTV 9S", "OBJECT_ID": "2006-043A", "EPOCH": "2025-12-10T04:31:38.803584", "MEAN_MOTION": 1.00270776, "ECCENTRICITY": 0.00031257, "INCLINATION": 1.9339, "RA_OF_ASC_NODE": 83.2331, "ARG_OF_PERICENTER": 179.2716, "MEAN_ANOMALY": 143.3579, "EPHEMERIS_TYPE": 0, "CLASSIFICATION_TYPE": "U", "NORAD_CAT_ID": 29494, "ELEMENT_SET_NO": 999, "REV_AT_EPOCH": 4948, "BSTAR": 0, "MEAN_MOTION_DOT": -1.1e-06, "MEAN_MOTION_DDOT": 0}, "tle": {"line1": "1 29494U 06043A   25344.18864356 -.00000110  00000+0  00000+0 0  9991", "line2": "2 29494   1.9339  83.2331 0003125 179.2716 143.3579  1.00270776 49486"}}, "geometry": {"type": "Point", "coordinates": [-158.2397032612189, 1.688507382601839]}}, {"type": "Feature", "properties": {"norad_id": 31307, "name": "GALAXY 17 (G-17)", "group": "intelsat", "lat": 1.727896020023379, "lon": -141.996802849771, "alt_km": 35763.010921579655, "timestamp": "2025-12-10T14:53:36.789928+00:00", "meta": {"OBJECT_NAME": "GALAXY 17 (G-17)", "OBJECT_ID": "2007-016B", "EPOCH": "2025-12-10T02:10:38.678880", "MEAN_MOTION": 1.0027256, "ECCENTRICITY": 0.00060198, "INCLINATION": 2.4935, "RA_OF_ASC_NODE": 82.3119, "ARG_OF_PERICENTER": 162.6841, "MEAN_ANOMALY": 141.7455, "EPHEMERIS_TYPE": 0, "CLASSIFICATION_TYPE": "U", "NORAD_CAT_ID": 31307, "ELEMENT_SET_NO": 999, "REV_AT_EPOCH": 6790, "BSTAR": 0, "MEAN_MOTION_DOT": -2.03e-06, "MEAN_MOTION_DDOT": 0}, "tle": {"line1": "1 31307U 07016B   25344.09072545 -.00000203  00000+0  00000+0 0  9992", "line2": "2 31307   2.4935  82.3119 0006019 162.6841 141.7455  1.00272560 67909"}}, "geometry": {"type": "Point", "coordinates": [-141.996802849771, 1.727896020023379]}}, {"type": "Feature", "properties": {"norad_id": 31862, "name": "DIRECTV 10", "group": "intelsat", "lat": -0.0010719831425314438, "lon": -159.79520087626577, "alt_km": 35784.86471840862, "timestamp": "2025-12-10T14:53:36.789938+00:00", "meta": {"OBJECT_NAME": "DIRECTV 10", "OBJECT_ID": "2007-032A", "EPOCH": "2025-12-10T04:31:38.803584", "MEAN_MOTION": 1.00270185, "ECCENTRICITY": 3.994e-05, "INCLINATION": 0.0096, "RA_OF_ASC_NODE": 97.6001, "ARG_OF_PERICENTER": 107.8966, "MEAN_ANOMALY": 198.7969, "EPHEMERIS_TYPE": 0, "CLASSIFICATION_TYPE": "U", "NORAD_CAT_ID": 31862, "ELEMENT_SET_NO": 999, "REV_AT_EPOCH": 4369, "BSTAR": 0, "MEAN_MOTION_DOT": -1e-06, "MEAN_MOTION_DDOT": 0}, "tle": {"line1": "1 31862U 07032A   25344.18864356 -.00000100  00000+0  00000+0 0  9991", "line2": "2 31862   0.0096  97.6001 0000399 107.8966 198.7969  1.00270185 43693"}}, "geometry": {"type": "Point", "coordinates": [-159.79520087626577, -0.0010719831425314438]}}, {"type": "Feature", "properties": {"norad_id": 32253, "name": "INTELSAT 11 (IS-11)", "group": "intelsat", "lat": 3.0490297354557034, "lon": 177.91931219364494, "alt_km": 36117.95338977025, "timestamp": "2025-12-10T14:53:36.789950+00:00", "meta": {"OBJECT_NAME": "INTELSAT 11 (IS-11)", "OBJECT_ID": "2007-044B", "EPOCH": "2025-12-10T06:30:56.711808", "MEAN_MOTION": 0.99047847, "ECCENTRICITY": 0.00090424, "INCLINATION": 3.074, "RA_OF_ASC_NODE": 81.0023, "ARG_OF_PERICENTER": 164.99, "MEAN_ANOMALY": 167.5398, "EPHEMERIS_TYPE": 0, "CLASSIFICATION_TYPE": "U", "NORAD_CAT_ID": 32253, "ELEMENT_SET_NO": 999, "REV_AT_EPOCH": 6657, "BSTAR": 0, "MEAN_MOTION_DOT": 7.7e-07, "MEAN_MOTION_DDOT": 0}, "tle": {"line1": "1 32253U 07044B   25344.27148972  .00000077  00000+0  00000+0 0  9990", "line2": "2 32253   3.0740  81.0023 0009042 164.9900 167.5398  0.99047847 66570"}}, "geometry": {"type": "Point", "coordinates": [177.91931219364494, 3.0490297354557034]}}, {"type": "Feature", "properties": {"norad_id": 32388, "name": "HORIZONS-2", "group": "intelsat", "lat": 1.1599793703699532, "lon": -130.81026843187826, "alt_km": 35770.52399228364, "timestamp": "2025-12-10T14:53:36.789970+00:00", "meta": {"OBJECT_NAME": "HORIZONS-2", "OBJECT_ID": "2007-063B", "EPOCH": "2025-12-10T04:15:38.659392", "MEAN_MOTION": 1.00270369, "ECCENTRICITY": 0.00049966, "INCLINATION": 2.1151, "RA_OF_ASC_NODE": 82.986, "ARG_OF_PERICENTER": 187.7367, "MEAN_ANOMALY": 158.5607, "EPHEMERIS_TYPE": 0, "CLASSIFICATION_TYPE": "U", "NORAD_CAT_ID": 32388, "ELEMENT_SET_NO": 999, "REV_AT_EPOCH": 6591, "BSTAR": 0, "MEAN_MOTION_DOT": -2.5e-06, "MEAN_MOTION_DDOT": 0}, "tle": {"line1": "1 32388U 07063B   25344.17753078 -.00000250  00000+0  00000+0 0  9992", "line2": "2 32388   2.1151  82.9860 0004996 187.7367 158.5607  1.00270369 65917"}}, "geometry": {"type": "Point", "coordinates": [-130.81026843187826, 1.1599793703699532]}}, {"type": "Feature", "properties": {"norad_id": 32729, "name": "DIRECTV 11", "group": "intelsat", "lat": -0.012162871987358072, "lon": -156.198757776565, "alt_km": 35784.30294662421, "timestamp": "2025-12-10T14:53:36.789981+00:00", "meta": {"OBJECT_NAME": "DIRECTV 11", "OBJECT_ID": "2008-013A", "EPOCH": "2025-12-09T10:14:01.462848", "MEAN_MOTION": 1.0027202, "ECCENTRICITY": 4.14e-05, "INCLINATION": 0.0295, "RA_OF_ASC_NODE": 191.9729, "ARG_OF_PERICENTER": 10.0555, "MEAN_ANOMALY": 290.7006, "EPHEMERIS_TYPE": 0, "CLASSIFICATION_TYPE": "U", "NORAD_CAT_ID": 32729, "ELEMENT_SET_NO": 999, "REV_AT_EPOCH": 4369, "BSTAR": 0, "MEAN_MOTION_DOT": -1.23e-06, "MEAN_MOTION_DDOT": 0}, "tle": {"line1": "1 32729U 08013A   25343.42640582 -.00000123  00000+0  00000+0 0  9998", "line2": "2 32729   0.0295 191.9729 0000414  10.0555 290.7006  1.00272020 43694"}}, "geometry": {"type": "Point", "coordinates": [-156.198757776565, -0.012162871987358072]}}, {"type": "Feature", "properties": {"norad_id": 32951, "name": "GALAXY 18 (G-18)", "group": "intelsat", "lat": -0.02040472517164102, "lon": 179.95409116544894, "alt_km": 35784.146726952094, "timestamp": "2025-12-10T14:53:36.789992+00:00", "meta": {"OBJECT_NAME": "GALAXY 18 (G-18)", "OBJECT_ID": "2008-024A", "EPOCH": "2025-12-10T07:53:45.617280", "MEAN_MOTION": 1.0027288, "ECCENTRICITY": 0.00031337, "INCLINATION": 0.0161, "RA_OF_ASC_NODE": 307.7167, "ARG_OF_PERICENTER": 315.284, "MEAN_ANOMALY": 171.7407, "EPHEMERIS_TYPE": 0, "CLASSIFICATION_TYPE": "U", "NORAD_CAT_ID": 32951, "ELEMENT_SET_NO": 999, "REV_AT_EPOCH": 4395, "BSTAR": 0, "MEAN_MOTION_DOT": 2.9e-07, "MEAN_MOTION_DDOT": 0}, "tle": {"line1": "1 32951U 08024A   25344.32900020  .00000029  00000+0  00000+0 0  9997", "line2": "2 32951   0.0161 307.7167 0003133 315.2840 171.7407  1.00272880 43950"}}, "geometry": {"type": "Point", "coordinates": [179.95409116544894, -0.02040472517164102]}}]}